     2.01           GLONASS NAV DATA                        RINEX VERSION / TYPE
CCRINEXG V1.4 UX    CDDIS               07-JUN-16 17:37     PGM / RUN BY / DATE 
IGS BROADCAST EPHEMERIS FILE                                COMMENT             
teqc  2013Mar15     GPS Operator        20160607  0:11:     COMMENT             
  2016     6     6    0.232830643654D-08                    CORR TO SYSTEM TIME 
    17                                                      LEAP SECONDS        
                                                            END OF HEADER       
20 16  6  6 21 15  0.0-0.237416476011D-03-0.181898940355D-11 0.756000000000D+05
   -0.185787060547D+05-0.216129302978D+00-0.931322574616D-09 0.000000000000D+00
   -0.174175996094D+05 0.809631347656D-01-0.465661287308D-08 0.200000000000D+01
   -0.720218261719D+03 0.359617996216D+01 0.279396772385D-08 0.000000000000D+00
21 16  6  6 21 15  0.0 0.674277544022D-04 0.181898940355D-11 0.756000000000D+05
   -0.184381220703D+05-0.172412681580D+01 0.000000000000D+00 0.000000000000D+00
   -0.684787939453D+04-0.141478919983D+01-0.186264514923D-08 0.400000000000D+01
   -0.162531123047D+05 0.255020141602D+01 0.279396772385D-08 0.000000000000D+00
22 16  6  6 21 15  0.0 0.202993862331D-03 0.909494701773D-12 0.756000000000D+05
   -0.710121533203D+04-0.231788539887D+01 0.279396772385D-08 0.000000000000D+00
    0.797037939453D+04-0.216945362091D+01 0.186264514923D-08-0.300000000000D+01
   -0.231651782227D+05-0.230264663696D-01 0.931322574616D-09 0.000000000000D+00
23 16  6  6 21 15  0.0-0.120474956930D-03-0.363797880709D-11 0.756300000000D+05
    0.892863916016D+04-0.145805644989D+01 0.279396772385D-08 0.000000000000D+00
    0.181240351562D+05-0.156519603729D+01 0.465661287308D-08 0.300000000000D+01
   -0.155840468750D+05-0.265603828430D+01-0.931322574616D-09 0.000000000000D+00
24 16  6  6 21 15  0.0-0.137264840305D-03 0.000000000000D+00 0.756300000000D+05
    0.186146005859D+05 0.124836921692D+00 0.186264514923D-08 0.000000000000D+00
    0.174537988281D+05-0.166604995728D+00 0.465661287308D-08 0.200000000000D+01
   -0.186166015625D+03-0.358881473541D+01-0.279396772385D-08 0.000000000000D+00
 1 16  6  6 21 45  0.0-0.142786651850D-03 0.000000000000D+00 0.774000000000D+05
   -0.808743017578D+04-0.237397861481D+01 0.931322574616D-09 0.000000000000D+00
    0.143346123047D+05 0.121682262421D+01-0.186264514923D-08 0.100000000000D+01
    0.195008510742D+05-0.187846660614D+01-0.186264514923D-08 0.000000000000D+00
 2 16  6  6 21 45  0.0 0.194425694645D-03 0.181898940355D-11 0.774300000000D+05
    0.107470507812D+05-0.276416587830D+01 0.000000000000D+00 0.000000000000D+00
    0.659581005859D+04 0.124347782135D+01 0.000000000000D+00-0.400000000000D+01
    0.222223940430D+05 0.965689659119D+00-0.279396772385D-08 0.000000000000D+00
 3 16  6  6 21 45  0.0 0.716559588909D-04 0.909494701773D-12 0.774300000000D+05
    0.224609160156D+05-0.144993972778D+01-0.931322574616D-09 0.000000000000D+00
   -0.455944238281D+04 0.523859024048D+00 0.186264514923D-08 0.500000000000D+01
    0.112776176758D+05 0.310834121704D+01-0.186264514923D-08 0.000000000000D+00
 4 16  6  6 21 45  0.0 0.171882100403D-03 0.909494701773D-12 0.790800000000D+05
    0.208020136719D+05 0.751649856567D+00-0.931322574616D-09 0.000000000000D+00
   -0.132270336914D+05-0.520476341248D+00 0.279396772385D-08 0.600000000000D+01
   -0.656322851562D+04 0.341860866547D+01 0.000000000000D+00 0.000000000000D+00
 5 16  6  6 21 45  0.0-0.170059502125D-04-0.909494701773D-12 0.774000000000D+05
    0.721223095703D+04 0.243173408508D+01-0.000000000000D+00 0.000000000000D+00
   -0.141751533203D+05-0.124138164520D+01 0.186264514923D-08 0.100000000000D+01
   -0.199417895508D+05 0.176222991943D+01 0.186264514923D-08 0.000000000000D+00
 6 16  6  6 21 45  0.0 0.904360786080D-04 0.000000000000D+00 0.782700000000D+05
   -0.115894370117D+05 0.271483993530D+01 0.000000000000D+00 0.000000000000D+00
   -0.619022216797D+04-0.125780582428D+01 0.000000000000D+00-0.400000000000D+01
   -0.218619125977D+05-0.108619117737D+01 0.279396772385D-08 0.000000000000D+00
 7 16  6  6 21 45  0.0-0.904221087694D-05-0.000000000000D+00 0.774000000000D+05
   -0.225184570312D+05 0.141993141174D+01 0.931322574616D-09 0.000000000000D+00
    0.475525195312D+04-0.513909339905D+00-0.186264514923D-08 0.500000000000D+01
   -0.109284511719D+05-0.314068603516D+01 0.186264514923D-08 0.000000000000D+00
 8 16  6  6 21 45  0.0-0.270707532764D-04 0.000000000000D+00 0.774000000000D+05
   -0.210201713867D+05-0.696547508240D+00 0.931322574616D-09 0.000000000000D+00
    0.130869521484D+05 0.494313240051D+00-0.186264514923D-08 0.600000000000D+01
    0.620059521484D+04-0.343537425995D+01-0.000000000000D+00 0.000000000000D+00
 9 16  6  6 21 45  0.0-0.795815140009D-05 0.272848410532D-11 0.774000000000D+05
   -0.607742871094D+04 0.152132034302D+00-0.465661287308D-08 0.000000000000D+00
   -0.180174843750D+05-0.232199192047D+01-0.372529029846D-08-0.600000000000D+01
    0.170054721680D+05-0.241428279877D+01 0.931322574616D-09 0.000000000000D+00
10 16  6  6 21 45  0.0 0.211587175727D-04 0.000000000000D+00 0.774000000000D+05
   -0.104948623047D+05 0.316620826721D+00-0.186264514923D-08 0.000000000000D+00
   -0.646852050781D+03-0.317398166657D+01-0.372529029846D-08-0.700000000000D+01
    0.232152402344D+05 0.472898483276D-01-0.931322574616D-09 0.000000000000D+00
11 16  6  6 21 45  0.0 0.302372500300D-04 0.000000000000D+00 0.774000000000D+05
   -0.899951660156D+04 0.331285476685D+00 0.931322574616D-09 0.000000000000D+00
    0.174350688477D+05-0.221090412140D+01-0.931322574616D-09 0.000000000000D+00
    0.162461416016D+05 0.256199264526D+01-0.186264514923D-08 0.000000000000D+00
12 16  6  6 21 45  0.0 0.251177698374D-04 0.909494701773D-12 0.782700000000D+05
   -0.175368798828D+04 0.179902076721D+00 0.372529029846D-08 0.000000000000D+00
    0.255187333984D+05 0.152108192444D+00 0.186264514923D-08-0.100000000000D+01
   -0.102521044922D+04 0.356231784821D+01-0.186264514923D-08 0.000000000000D+00
13 16  6  6 21 45  0.0 0.769738107920D-05 0.000000000000D+00 0.774300000000D+05
    0.641018505859D+04-0.578660964966D-01 0.372529029846D-08 0.000000000000D+00
    0.178250283203D+05 0.234282493591D+01 0.372529029846D-08-0.200000000000D+01
   -0.171113354492D+05 0.242120075226D+01-0.931322574616D-09 0.000000000000D+00
14 16  6  6 21 45  0.0 0.329779461026D-03 0.454747350886D-11 0.774000000000D+05
    0.106338046875D+05-0.318846702576D+00 0.186264514923D-08 0.000000000000D+00
   -0.821130859375D+03 0.315683174133D+01 0.372529029846D-08-0.700000000000D+01
   -0.231935385742D+05-0.265244483948D+00 0.931322574616D-09 0.000000000000D+00
15 16  6  6 21 45  0.0 0.713691115379D-04 0.909494701773D-12 0.774000000000D+05
    0.945168847656D+04-0.384675025940D+00-0.931322574616D-09 0.000000000000D+00
   -0.161983627930D+05 0.234749126434D+01 0.186264514923D-08 0.000000000000D+00
   -0.173386123047D+05-0.239357471466D+01 0.186264514923D-08 0.000000000000D+00
16 16  6  6 21 45  0.0 0.350037589669D-04 0.909494701773D-12 0.774000000000D+05
    0.228262597656D+04-0.188531875610D+00-0.372529029846D-08 0.000000000000D+00
   -0.254615434570D+05-0.499916076660D-02-0.186264514923D-08-0.100000000000D+01
   -0.111375488281D+03-0.357076740265D+01 0.186264514923D-08 0.000000000000D+00
17 16  6  6 21 45  0.0-0.261161476374D-04 0.000000000000D+00 0.774300000000D+05
    0.211193149414D+05 0.136449337006D+01 0.000000000000D+00 0.000000000000D+00
    0.855346484375D+04 0.786962509155D+00 0.279396772385D-08 0.400000000000D+01
    0.114458964844D+05-0.311034679413D+01-0.279396772385D-08 0.000000000000D+00
18 16  6  6 21 45  0.0 0.104755163193D-03 0.181898940355D-11 0.785100000000D+05
    0.122578935547D+05 0.249647426605D+01-0.186264514923D-08 0.000000000000D+00
   -0.383146923828D+04 0.169700336456D+01 0.000000000000D+00-0.300000000000D+01
    0.220649780273D+05-0.108611106873D+01-0.279396772385D-08 0.000000000000D+00
19 16  6  6 21 45  0.0-0.156596302986D-03-0.000000000000D+00 0.774000000000D+05
   -0.469009472656D+04 0.216362094879D+01-0.372529029846D-08 0.000000000000D+00
   -0.149177109375D+05 0.171957397461D+01-0.372529029846D-08 0.300000000000D+01
    0.201501757812D+05 0.177713489532D+01-0.000000000000D+00 0.000000000000D+00
20 16  6  6 21 45  0.0-0.237420201302D-03-0.181898940355D-11 0.774000000000D+05
   -0.183352138672D+05 0.509181022644D+00-0.279396772385D-08 0.000000000000D+00
   -0.167493149414D+05 0.625927925110D+00-0.465661287308D-08 0.200000000000D+01
    0.569691162109D+04 0.348749542236D+01 0.186264514923D-08 0.000000000000D+00
21 16  6  6 21 45  0.0 0.674305483699D-04 0.181898940355D-11 0.774000000000D+05
   -0.212343432617D+05-0.133752155304D+01-0.000000000000D+00 0.000000000000D+00
   -0.878247167969D+04-0.740870475769D+00-0.279396772385D-08 0.400000000000D+01
   -0.110942172852D+05 0.314470672607D+01 0.372529029846D-08 0.000000000000D+00
22 16  6  6 21 45  0.0 0.202995724976D-03 0.000000000000D+00 0.774000000000D+05
   -0.114964555664D+05-0.252174568176D+01 0.186264514923D-08 0.000000000000D+00
    0.443030908203D+04-0.173519039154D+01 0.931322574616D-09-0.300000000000D+01
   -0.223098447266D+05 0.967625617981D+00 0.186264514923D-08 0.000000000000D+00
23 16  6  6 21 45  0.0-0.120482407510D-03-0.363797880709D-11 0.774300000000D+05
    0.568159179688D+04-0.213534259796D+01 0.372529029846D-08 0.000000000000D+00
    0.151870634766D+05-0.165187644959D+01 0.372529029846D-08 0.300000000000D+01
   -0.197013281250D+05-0.188905715942D+01 0.000000000000D+00 0.000000000000D+00
24 16  6  6 21 45  0.0-0.137265771627D-03 0.000000000000D+00 0.774300000000D+05
    0.181931166992D+05-0.613264083862D+00 0.279396772385D-08 0.000000000000D+00
    0.166579350586D+05-0.680742263794D+00 0.465661287308D-08 0.200000000000D+01
   -0.655549707031D+04-0.344234275818D+01-0.186264514923D-08 0.000000000000D+00
